{
  "type": "FeatureCollection",
  "features": [
    {
      "type": "Feature",
      "properties": {
        "norad_id": 35434,
        "name": "COSMOS 2251 DEB",
        "group": "cosmos-2251-debris",
        "lat": -25.23525726643435,
        "lon": 22.12016769016196,
        "alt_km": 776.4364856427555,
        "timestamp": "2025-12-23T09:49:07.478996+00:00",
        "meta_object_name": "COSMOS 2251 DEB",
        "meta_object_id": "1993-036AKC",
        "meta_epoch": "2025-12-22T05:54:05.337504",
        "meta_mean_motion": 14.2571381,
        "meta_eccentricity": 0.00872817,
        "meta_inclination": 74.039,
        "meta_ra_of_asc_node": 196.4671,
        "meta_arg_of_pericenter": 265.2189,
        "meta_mean_anomaly": 93.8988,
        "meta_ephemeris_type": 0,
        "meta_classification_type": "U",
        "meta_norad_cat_id": 35434,
        "meta_element_set_no": 999,
        "meta_rev_at_epoch": 86253,
        "meta_bstar": 0.00053067113,
        "meta_mean_motion_dot": 1.284e-05,
        "meta_mean_motion_ddot": 0,
        "tle_line1": "1 35434U 93036AKC 25356.24589511  .00001284  00000+0  53067-3 0  9994",
        "tle_line2": "2 35434  74.0390 196.4671 0087281 265.2189  93.8988 14.25713810862538"
      },
      "geometry": {
        "type": "Point",
        "coordinates": [
          22.12016769016196,
          -25.23525726643435
        ]
      }
    },
    {
      "type": "Feature",
      "properties": {
        "norad_id": 35435,
        "name": "COSMOS 2251 DEB",
        "group": "cosmos-2251-debris",
        "lat": -73.9756210996473,
        "lon": -3.6294032945534305,
        "alt_km": 640.3035024895962,
        "timestamp": "2025-12-23T09:49:07.479006+00:00",
        "meta_object_name": "COSMOS 2251 DEB",
        "meta_object_id": "1993-036AKD",
        "meta_epoch": "2025-12-21T14:40:33.079008",
        "meta_mean_motion": 14.78710754,
        "meta_eccentricity": 0.0007054,
        "meta_inclination": 74.0111,
        "meta_ra_of_asc_node": 86.6037,
        "meta_arg_of_pericenter": 183.8083,
        "meta_mean_anomaly": 241.499,
        "meta_ephemeris_type": 0,
        "meta_classification_type": "U",
        "meta_norad_cat_id": 35435,
        "meta_element_set_no": 999,
        "meta_rev_at_epoch": 87670,
        "meta_bstar": 0.0016617,
        "meta_mean_motion_dot": 0.00012188,
        "meta_mean_motion_ddot": 0,
        "tle_line1": "1 35435U 93036AKD 25355.61149397  .00012188  00000+0  16617-2 0  9993",
        "tle_line2": "2 35435  74.0111  86.6037 0007054 183.8083 241.4990 14.78710754876704"
      },
      "geometry": {
        "type": "Point",
        "coordinates": [
          -3.6294032945534305,
          -73.9756210996473
        ]
      }
    },
    {
      "type": "Feature",
      "properties": {
        "norad_id": 35439,
        "name": "COSMOS 2251 DEB",
        "group": "cosmos-2251-debris",
        "lat": 32.74439200414528,
        "lon": -74.15956015779844,
        "alt_km": 1045.334583572695,
        "timestamp": "2025-12-23T09:49:07.479016+00:00",
        "meta_object_name": "COSMOS 2251 DEB",
        "meta_object_id": "1993-036AKH",
        "meta_epoch": "2025-12-20T15:40:28.809408",
        "meta_mean_motion": 13.92842634,
        "meta_eccentricity": 0.02425836,
        "meta_inclination": 74.0193,
        "meta_ra_of_asc_node": 121.1801,
        "meta_arg_of_pericenter": 288.7541,
        "meta_mean_anomaly": 84.8538,
        "meta_ephemeris_type": 0,
        "meta_classification_type": "U",
        "meta_norad_cat_id": 35439,
        "meta_element_set_no": 999,
        "meta_rev_at_epoch": 84071,
        "meta_bstar": 0.0011295223,
        "meta_mean_motion_dot": 1.838e-05,
        "meta_mean_motion_ddot": 0,
        "tle_line1": "1 35439U 93036AKH 25354.65311122  .00001838  00000+0  11295-2 0  9994",
        "tle_line2": "2 35439  74.0193 121.1801 0242583 288.7541  84.8538 13.92842634840711"
      },
      "geometry": {
        "type": "Point",
        "coordinates": [
          -74.15956015779844,
          32.74439200414528
        ]
      }
    },
    {
      "type": "Feature",
      "properties": {
        "norad_id": 35440,
        "name": "COSMOS 2251 DEB",
        "group": "cosmos-2251-debris",
        "lat": -67.92510126652932,
        "lon": 51.93376767093393,
        "alt_km": 655.1765037461873,
        "timestamp": "2025-12-23T09:49:07.479026+00:00",
        "meta_object_name": "COSMOS 2251 DEB",
        "meta_object_id": "1993-036AKJ",
        "meta_epoch": "2025-12-22T19:34:52.667040",
        "meta_mean_motion": 14.68858524,
        "meta_eccentricity": 0.00697181,
        "meta_inclination": 74.0136,
        "meta_ra_of_asc_node": 188.1002,
        "meta_arg_of_pericenter": 326.674,
        "meta_mean_anomaly": 33.0049,
        "meta_ephemeris_type": 0,
        "meta_classification_type": "U",
        "meta_norad_cat_id": 35440,
        "meta_element_set_no": 999,
        "meta_rev_at_epoch": 68913,
        "meta_bstar": 0.00037964995,
        "meta_mean_motion_dot": 2.268e-05,
        "meta_mean_motion_ddot": 0,
        "tle_line1": "1 35440U 93036AKJ 25356.81588735  .00002268  00000+0  37965-3 0  9993",
        "tle_line2": "2 35440  74.0136 188.1002 0069718 326.6740  33.0049 14.68858524689135"
      },
      "geometry": {
        "type": "Point",
        "coordinates": [
          51.93376767093393,
          -67.92510126652932
        ]
      }
    },
    {
      "type": "Feature",
      "properties": {
        "norad_id": 35441,
        "name": "COSMOS 2251 DEB",
        "group": "cosmos-2251-debris",
        "lat": -26.792069266892693,
        "lon": -90.47783492110933,
        "alt_km": 713.9755363634113,
        "timestamp": "2025-12-23T09:49:07.479036+00:00",
        "meta_object_name": "COSMOS 2251 DEB",
        "meta_object_id": "1993-036AKK",
        "meta_epoch": "2025-12-21T02:08:13.738560",
        "meta_mean_motion": 14.62705296,
        "meta_eccentricity": 0.00361872,
        "meta_inclination": 74.1353,
        "meta_ra_of_asc_node": 282.196,
        "meta_arg_of_pericenter": 175.8941,
        "meta_mean_anomaly": 184.2531,
        "meta_ephemeris_type": 0,
        "meta_classification_type": "U",
        "meta_norad_cat_id": 35441,
        "meta_element_set_no": 999,
        "meta_rev_at_epoch": 87552,
        "meta_bstar": 0.00090653358,
        "meta_mean_motion_dot": 4.633e-05,
        "meta_mean_motion_ddot": 0,
        "tle_line1": "1 35441U 93036AKK 25355.08904790  .00004633  00000+0  90653-3 0  9996",
        "tle_line2": "2 35441  74.1353 282.1960 0036187 175.8941 184.2531 14.62705296875523"
      },
      "geometry": {
        "type": "Point",
        "coordinates": [
          -90.47783492110933,
          -26.792069266892693
        ]
      }
    },
    {
      "type": "Feature",
      "properties": {
        "norad_id": 35442,
        "name": "COSMOS 2251 DEB",
        "group": "cosmos-2251-debris",
        "lat": -22.323560780574912,
        "lon": 71.20399546915384,
        "alt_km": 618.489100445534,
        "timestamp": "2025-12-23T09:49:07.479046+00:00",
        "meta_object_name": "COSMOS 2251 DEB",
        "meta_object_id": "1993-036AKL",
        "meta_epoch": "2025-12-21T15:52:41.511648",
        "meta_mean_motion": 14.84721405,
        "meta_eccentricity": 0.00038256,
        "meta_inclination": 74.0271,
        "meta_ra_of_asc_node": 81.4264,
        "meta_arg_of_pericenter": 51.6549,
        "meta_mean_anomaly": 308.4973,
        "meta_ephemeris_type": 0,
        "meta_classification_type": "U",
        "meta_norad_cat_id": 35442,
        "meta_element_set_no": 999,
        "meta_rev_at_epoch": 87485,
        "meta_bstar": 0.0016051143,
        "meta_mean_motion_dot": 0.00013595,
        "meta_mean_motion_ddot": 0,
        "tle_line1": "1 35442U 93036AKL 25355.66159157  .00013595  00000+0  16051-2 0  9996",
        "tle_line2": "2 35442  74.0271  81.4264 0003825  51.6549 308.4973 14.84721405874856"
      },
      "geometry": {
        "type": "Point",
        "coordinates": [
          71.20399546915384,
          -22.323560780574912
        ]
      }
    },
    {
      "type": "Feature",
      "properties": {
        "norad_id": 35443,
        "name": "COSMOS 2251 DEB",
        "group": "cosmos-2251-debris",
        "lat": 46.96438394230078,
        "lon": 112.02879301566544,
        "alt_km": 531.7964215909014,
        "timestamp": "2025-12-23T09:49:07.479056+00:00",
        "meta_object_name": "COSMOS 2251 DEB",
        "meta_object_id": "1993-036AKM",
        "meta_epoch": "2025-12-22T07:35:27.878496",
        "meta_mean_motion": 14.97448955,
        "meta_eccentricity": 0.00729664,
        "meta_inclination": 73.9898,
        "meta_ra_of_asc_node": 312.1571,
        "meta_arg_of_pericenter": 91.4914,
        "meta_mean_anomaly": 269.4631,
        "meta_ephemeris_type": 0,
        "meta_classification_type": "U",
        "meta_norad_cat_id": 35443,
        "meta_element_set_no": 999,
        "meta_rev_at_epoch": 87021,
        "meta_bstar": 0.0042887537,
        "meta_mean_motion_dot": 0.00053082,
        "meta_mean_motion_ddot": 0,
        "tle_line1": "1 35443U 93036AKM 25356.31629489  .00053082  00000+0  42888-2 0  9992",
        "tle_line2": "2 35443  73.9898 312.1571 0072966  91.4914 269.4631 14.97448955870218"
      },
      "geometry": {
        "type": "Point",
        "coordinates": [
          112.02879301566544,
          46.96438394230078
        ]
      }
    }
  ]
}